[{"OBJECT_NAME":"CHECKMATE 2","OBJECT_ID":"2023-050F","EPOCH":"2026-03-09T19:29:32.529984","MEAN_MOTION":13.85139879,"ECCENTRICITY":0.00065591,"INCLINATION":81.0074,"RA_OF_ASC_NODE":167.0099,"ARG_OF_PERICENTER":215.4307,"MEAN_ANOMALY":144.6414,"EPHEMERIS_TYPE":0,"CLASSIFICATION_TYPE":"U","NORAD_CAT_ID":56167,"ELEMENT_SET_NO":999,"REV_AT_EPOCH":14835,"BSTAR":0.00012325812,"MEAN_MOTION_DOT":1.51e-6,"MEAN_MOTION_DDOT":0},{"OBJECT_NAME":"UNKNOWN","OBJECT_ID":"","EPOCH":"2026-03-07T13:54:04.889664","MEAN_MOTION":13.85887429,"ECCENTRICITY":0.0039236,"INCLINATION":82.9683,"RA_OF_ASC_NODE":170.1058,"ARG_OF_PERICENTER":154.6076,"MEAN_ANOMALY":219.3599,"EPHEMERIS_TYPE":0,"CLASSIFICATION_TYPE":"U","NORAD_CAT_ID":82199,"ELEMENT_SET_NO":999,"REV_AT_EPOCH":62144,"BSTAR":0.00065358,"MEAN_MOTION_DOT":7.7e-6,"MEAN_MOTION_DDOT":0}]
